NORAD_CAT_ID,OBJECT_NAME,OBJECT_TYPE,EPOCH,MEAN_MOTION,ECCENTRICITY,INCLINATION,RA_OF_ASC_NODE,ARG_OF_PERICENTER,MEAN_ANOMALY,BSTAR,MEAN_MOTION_DOT,MEAN_MOTION_DDOT,TLE_LINE0,TLE_LINE1,TLE_LINE2,SEMIMAJOR_AXIS,PERIOD,APOGEE,PERIGEE,DECAYED
49141.0,STARLINK-3093,PAYLOAD,2022-07-01 11:47:20,14.98321838,0.0002754,69.9992,91.209,257.85900000000004,102.2261,0.00011647,1.297e-05,0.0,0 STARLINK-3093,1 49141U 21082M   22182.49120968  .00001297  00000-0  11647-3 0  9997,2 49141  69.9992  91.2090 0002754 257.8590 102.2261 14.98321838 45381,6950.218000000003,96.108,573.997,570.169,0.0
49141.0,STARLINK-3093,PAYLOAD,2022-07-01 21:24:08,14.98325769,0.0002754,69.9992,90.1988,258.0782,102.0068,0.00010659,1.179e-05,0.0,0 STARLINK-3093,1 49141U 21082M   22182.89176896  .00001179  00000-0  10659-3 0  9993,2 49141  69.9992  90.1988 0002754 258.0782 102.0068 14.98325769 45448,6950.206,96.107,573.985,570.1569999999998,0.0
49141.0,STARLINK-3093,PAYLOAD,2022-07-02 03:48:40,14.98328388,0.0002729,69.9992,89.5253,257.6995,102.3858,0.00012361,1.382e-05,0.0,0 STARLINK-3093,1 49141U 21082M   22183.15880766  .00001382  00000-0  12361-3 0  9999,2 49141  69.9992  89.5253 0002729 257.6995 102.3858 14.98328388 45482,6950.198,96.107,573.96,570.1659999999998,0.0
49141.0,STARLINK-3093,PAYLOAD,2022-07-02 21:26:09,14.98336466,0.000272,69.9991,87.6738,257.8579,102.2276,0.0001335,1.501e-05,0.0,0 STARLINK-3093,1 49141U 21082M   22183.89316139  .00001501  00000-0  13350-3 0  9990,2 49141  69.9991  87.6738 0002720 257.8579 102.2276 14.98336466 45590,6950.1730000000025,96.107,573.928,570.1469999999998,0.0
49141.0,STARLINK-3093,PAYLOAD,2022-07-03 10:15:12,14.98343236,0.0002683,69.9991,86.32700000000001,257.5613,102.5246,0.00017607,2.009e-05,0.0,0 STARLINK-3093,1 49141U 21082M   22184.42723324  .00002009  00000-0  17607-3 0  9991,2 49141  69.9991  86.3270 0002683 257.5613 102.5246 14.98343236 45673,6950.151999999999,96.106,573.882,570.1519999999998,0.0
49141.0,STARLINK-3093,PAYLOAD,2022-07-03 19:52:00,14.98347326,0.000267,69.999,85.31700000000002,257.3988,102.6873,0.00016485,1.875e-05,0.0,0 STARLINK-3093,1 49141U 21082M   22184.82778754  .00001875  00000-0  16485-3 0  9995,2 49141  69.9990  85.3170 0002670 257.3988 102.6873 14.98347326 45737,6950.139,96.106,573.86,570.149,0.0
49141.0,STARLINK-3093,PAYLOAD,2022-07-03 21:28:08,14.9834669,0.0002684,69.999,85.1487,257.3775,102.7083,0.00015856,1.8e-05,0.0,0 STARLINK-3093,1 49141U 21082M   22184.89454753  .00001800  00000-0  15856-3 0  9991,2 49141  69.9990  85.1487 0002684 257.3775 102.7083 14.98346690 45743,6950.141,96.106,573.872,570.141,0.0
49141.0,STARLINK-3093,PAYLOAD,2022-07-04 02:16:33,14.98336692,0.0002812,69.9987,84.6431,259.4885,100.5957,4.4915e-05,4.43e-06,0.0,0 STARLINK-3093,1 49141U 21082M   22185.09483570  .00000443  00000-0  44915-4 0  9994,2 49141  69.9987  84.6431 0002812 259.4885 100.5957 14.98336692 45770,6950.172,96.107,573.992,570.0830000000002,0.0
49141.0,STARLINK-3093,PAYLOAD,2022-07-04 10:17:14,14.98327322,0.0002787,69.9987,83.8014,259.7585,100.326,-8.769399999999999e-05,-1.139e-05,0.0,0 STARLINK-3093,1 49141U 21082M   22185.42864424 -.00001139  00000-0 -87694-4 0  9998,2 49141  69.9987  83.8014 0002787 259.7585 100.3260 14.98327322 45820,6950.201,96.107,574.003,570.129,0.0
49141.0,STARLINK-3093,PAYLOAD,2022-07-04 21:30:11,14.98327373,0.000282,69.9986,82.6226,261.4253,98.6586,-0.00016133,-2.017e-05,0.0,0 STARLINK-3093,1 49141U 21082M   22185.89596579 -.00002017  00000-0 -16133-3 0  9997,2 49141  69.9986  82.6226 0002820 261.4253  98.6586 14.98327373 45894,6950.201,96.107,574.026,570.106,0.0
49141.0,STARLINK-3093,PAYLOAD,2022-07-05 10:19:15,14.98331551,0.0002817,69.9987,81.2765,257.8073,102.277,-0.00012709,-1.609e-05,0.0,0 STARLINK-3093,1 49141U 21082M   22186.43004192 -.00001609  00000-0 -12709-3 0  9994,2 49141  69.9987  81.2765 0002817 257.8073 102.2770 14.98331551 45972,6950.188,96.107,574.011,570.095,0.0
49141.0,STARLINK-3093,PAYLOAD,2022-07-05 21:32:11,14.98331175,0.0002833,69.9988,80.0978,257.5349,102.5493,-0.00010074,-1.295e-05,0.0,0 STARLINK-3093,1 49141U 21082M   22186.89736104 -.00001295  00000-0 -10074-3 0  9993,2 49141  69.9988  80.0978 0002833 257.5349 102.5493 14.98331175 46043,6950.189,96.107,574.023,570.085,0.0
49141.0,STARLINK-3093,PAYLOAD,2022-07-06 10:21:16,14.98324661,0.000275,69.999,78.7523,256.1287,103.9566,0.00010963,1.215e-05,0.0,0 STARLINK-3093,1 49141U 21082M   22187.43144112  .00001215  00000-0  10963-3 0  9993,2 49141  69.9990  78.7523 0002750 256.1287 103.9566 14.98324661 46127,6950.209,96.107,573.986,570.163,0.0
49141.0,STARLINK-3093,PAYLOAD,2022-07-06 18:21:56,14.98326331,0.0002751,69.999,77.9105,255.9493,104.136,0.00014524,1.64e-05,0.0,0 STARLINK-3093,1 49141U 21082M   22187.76524040  .00001640  00000-0  14524-3 0  9990,2 49141  69.9990  77.9105 0002751 255.9493 104.1360 14.98326331 46177,6950.204000000002,96.107,573.981,570.1569999999998,0.0
49141.0,STARLINK-3093,PAYLOAD,2022-07-07 02:22:36,14.9832964,0.0002752,69.999,77.0689,255.9965,104.0888,0.00014965,1.693e-05,0.0,0 STARLINK-3093,1 49141U 21082M   22188.09903893  .00001693  00000-0  14965-3 0  9991,2 49141  69.9990  77.0689 0002752 255.9965 104.0888 14.98329640 46226,6950.194,96.107,573.972,570.146,0.0
49141.0,STARLINK-3093,PAYLOAD,2022-07-07 20:00:05,14.98338005,0.0002716,69.9991,75.2172,256.2274,103.8583,0.00015402,1.746e-05,0.0,0 STARLINK-3093,1 49141U 21082M   22188.83339297  .00001746  00000-0  15402-3 0  9990,2 49141  69.9991  75.2172 0002716 256.2274 103.8583 14.98338005 46337,6950.168000000002,96.106,573.9209999999998,570.145,0.0
49141.0,STARLINK-3093,PAYLOAD,2022-07-08 02:24:36,14.98343092,0.0002717,69.999,74.5432,254.8481,105.2378,0.00019662,2.255e-05,0.0,0 STARLINK-3093,1 49141U 21082M   22189.10042748  .00002255  00000-0  19662-3 0  9991,2 49141  69.9990  74.5432 0002717 254.8481 105.2378 14.98343092 46376,6950.151999999999,96.106,573.906,570.129,0.0
49141.0,STARLINK-3093,PAYLOAD,2022-07-08 20:02:05,14.98343042,0.0002694,69.9989,72.6915,254.8708,105.2153,9.9865e-05,1.099e-05,0.0,0 STARLINK-3093,1 49141U 21082M   22189.83478341  .00001099  00000-0  99865-4 0  9992,2 49141  69.9989  72.6915 0002694 254.8708 105.2153 14.98343042 46483,6950.153,96.106,573.89,570.145,0.0
49141.0,STARLINK-3093,PAYLOAD,2022-07-09 08:51:09,14.98345714,0.0002722,69.9989,71.3453,255.4403,104.6454,8.7355e-05,9.5e-06,0.0,0 STARLINK-3093,1 49141U 21082M   22190.36885761  .00000950  00000-0  87355-4 0  9996,2 49141  69.9989  71.3453 0002722 255.4403 104.6454 14.98345714 46561,6950.144,96.106,573.901,570.117,0.0
49141.0,STARLINK-3093,PAYLOAD,2022-07-10 02:28:39,14.98323846,0.0002867,69.9988,69.4936,253.8211,106.2633,-0.00020199,-2.502e-05,0.0,0 STARLINK-3093,1 49141U 21082M   22191.10323761 -.00002502  00000-0 -20199-3 0  9995,2 49141  69.9988  69.4936 0002867 253.8211 106.2633 14.98323846 46674,6950.212,96.107,574.07,570.0840000000002,0.0
49141.0,STARLINK-3093,PAYLOAD,2022-07-10 16:53:52,14.98319506,0.0002925,69.9989,67.9785,256.1408,103.9426,-0.00014647,-1.84e-05,0.0,0 STARLINK-3093,1 49141U 21082M   22191.70408124 -.00001840  00000-0 -14647-3 0  9993,2 49141  69.9989  67.9785 0002925 256.1408 103.9426 14.98319506 46761,6950.225,96.108,574.123,570.057,0.0
49141.0,STARLINK-3093,PAYLOAD,2022-07-11 02:30:40,14.98323392,0.0002883,69.9989,66.9683,256.1039,103.9799,-8.44e-05,-1.1e-05,0.0,0 STARLINK-3093,1 49141U 21082M   22192.10463998 -.00001100  00000-0 -84400-4 0  9992,2 49141  69.9989  66.9683 0002883 256.1039 103.9799 14.98323392 46828,6950.2130000000025,96.107,574.082,570.075,0.0
49141.0,STARLINK-3093,PAYLOAD,2022-07-11 08:55:13,14.98324876,0.0002917,69.9989,66.295,255.6703,104.4132,-0.00011194,-1.428e-05,0.0,0 STARLINK-3093,1 49141U 21082M   22192.37168118 -.00001428  00000-0 -11194-3 0  9999,2 49141  69.9989  66.2950 0002917 255.6703 104.4132 14.98324876 46867,6950.209,96.107,574.101,570.0459999999998,0.0
49141.0,STARLINK-3093,PAYLOAD,2022-07-11 20:08:09,14.98316454,0.0002969,69.9991,65.1165,255.1921,104.8909,0.00013982,1.575e-05,0.0,0 STARLINK-3093,1 49141U 21082M   22192.83900449  .00001575  00000-0  13982-3 0  9999,2 49141  69.9991  65.1165 0002969 255.1921 104.8909 14.98316454 46937,6950.235,96.108,574.163,570.036,0.0
49141.0,STARLINK-3093,PAYLOAD,2022-07-12 02:32:42,14.98318274,0.0002957,69.999,64.4432,255.2456,104.8376,0.00022051,2.538e-05,0.0,0 STARLINK-3093,1 49141U 21082M   22193.10604484  .00002538  00000-0  22051-3 0  9997,2 49141  69.9990  64.4432 0002957 255.2456 104.8376 14.98318274 46970,6950.229,96.108,574.149,570.039,0.0
49141.0,STARLINK-3093,PAYLOAD,2022-07-12 08:57:14,14.98323193,0.0002943,69.9991,63.7699,254.5988,105.4846,0.0002415,2.789e-05,0.0,0 STARLINK-3093,1 49141U 21082M   22193.37308372  .00002789  00000-0  24150-3 0  9993,2 49141  69.9991  63.7699 0002943 254.5988 105.4846 14.98323193 47016,6950.214,96.107,574.124,570.033,0.0
49141.0,STARLINK-3093,PAYLOAD,2022-07-12 20:10:10,14.98331376,0.0002943,69.9991,62.5916,254.5744,105.509,0.00029444,3.422e-05,0.0,0 STARLINK-3093,1 49141U 21082M   22193.84040123  .00003422  00000-0  29444-3 0  9998,2 49141  69.9991  62.5916 0002943 254.5744 105.5090 14.98331376 47086,6950.189,96.107,574.099,570.008,0.0
49141.0,STARLINK-3093,PAYLOAD,2022-07-13 08:59:14,14.98345291,0.0002915,70.0005,61.2452,254.7833,105.3003,0.00048863,5.744e-05,0.0,0 STARLINK-3093,1 49141U 21082M   22194.37447829  .00005744  00000-0  48863-3 0  9996,2 49141  70.0005  61.2452 0002915 254.7833 105.3003 14.98345291 47168,6950.146,96.106,574.0369999999998,569.985,0.0
49141.0,STARLINK-3093,PAYLOAD,2022-07-13 20:12:10,14.98349861,0.0002911,70.0008,60.0673,255.1601,104.9235,0.00043909,5.153e-05,0.0,0 STARLINK-3093,1 49141U 21082M   22194.84179341  .00005153  00000-0  43909-3 0  9999,2 49141  70.0008  60.0673 0002911 255.1601 104.9235 14.98349861 47234,6950.130999999999,96.106,574.02,569.9730000000002,0.0
